{
  "norad_id": 52645,
  "name": "STARLINK-3973",
  "history": [
    {
      "epoch": "2026-03-28T12:51:57.169440Z",
      "apogee_km": 540.6064638143362,
      "perigee_km": 538.8866779586151,
      "latitude_deg": -2.332658037951718e-05,
      "longitude_deg": 155.67885793828728,
      "height_km": 540.5913985242644,
      "semi_major_axis_km": 6917.883570886475,
      "eccentricity": 0.0001243,
      "inclination_deg": 53.2162,
      "raan_deg": 174.6222,
      "arg_perigee_deg": 86.6052,
      "mean_anomaly_deg": 273.5082,
      "mean_motion_rev_day": 15.08838959
    }
  ]
}